From: horizons@ssd.jpl.nasa.gov (Horizons Ephemeris System)
Subject: [Horizons] SMALL BODY #C(500@10)_T(8P/Tuttle) (1/1)
Date: March 1, 2021 at 10:53:19 AM PST

Automated mail xmit by MAIL_REQUEST, PID= 29367 Mon Mar  1 10:53:19 2021
++++++++++++++++++++++++++++++++ (part 1 of 1)  +++++++++++++++++++++++++++++++


*******************************************************************************
Ephemeris / MAIL_REQUEST Mon Mar  1 10:53:19 2021 Pasadena, USA  / Horizons
*******************************************************************************
Target body name: 8P/Tuttle                       {source: JPL#K215/8}
Center body name: Sun (10)                        {source: DE431}
Center-site name: BODY CENTER
*******************************************************************************
Start time      : A.D. 2005-Feb-19 08:52:48.0000 TDB
Stop  time      : A.D. 2011-Feb-19 08:52:48.0000 TDB
Step-size       : 20160 minutes
*******************************************************************************
Center geodetic : 0.00000000,0.00000000,0.0000000 {E-lon(deg),Lat(deg),Alt(km)}
Center cylindric: 0.00000000,0.00000000,0.0000000 {E-lon(deg),Dxy(km),Dz(km)}
Center radii    : 696000.0 x 696000.0 x 696000.0 k{Equator, meridian, pole}    
Small perturbers: Yes                             {source: SB431-N16}
Output units    : AU-D
Output type     : GEOMETRIC cartesian states
Output format   : 3 (position, velocity, LT, range, range-rate)
Reference frame : Ecliptic of J2000.0
*******************************************************************************
Initial IAU76/J2000 heliocentric ecliptic osculating elements (au, days, deg.):
 EPOCH=  2454453.5 ! 2007-Dec-19.0000000 (TDB)    RMSW= n.a.                  
  EC= .8198309621312905   QR= 1.027131264992651   TP= 2454492.5233992939      
  OM= 270.3415874631229   W= 207.5071341554478    IN= 54.98331415077818       
 Equivalent ICRF heliocentric equatorial cartesian coordinates (au, au/d):
  X= 1.997033330936276E-01  Y= 9.194956052955223E-01  Z= 7.197886456898172E-01
 VX=-1.212288097950074E-02 VY= 5.954139821608130E-03 VZ=-1.628637230545045E-02
Comet physical (GM= km^3/s^2; RAD= km):                                        
  GM= n.a.                RAD= 2.25                                           
  M1=  14.6     M2=  n.a.     k1=  5.25   k2= n.a.     PHCOF= n.a.            
Comet non-gravitational force model (AMRAT=m^2/kg;A1-A3=au/d^2;DT=days;R0=au): 
  AMRAT=  0.                                      DT=  0.                     
  A1= 5.501437559724E-10  A2= 1.393281854689E-10  A3= -4.641771316528E-10     
Standard model:                                                               
  ALN=  .1112620426   NK=  4.6142   NM=  2.15     NN=  5.093    R0=  2.808    
*******************************************************************************
           JDTDB,            Calendar Date (TDB),                      X,                      Y,                      Z,                     VX,                     VY,                     VZ,                     LT,                     RG,                     RR,
**************************************************************************************************************************************************************************************************************************************************************************
$$SOE
2453756.870000000, A.D. 2006-Jan-21 08:52:48.0000,  3.149009775651111E+00, -3.480990797800784E+00,  4.464128026367637E+00, -1.383711050622499E-03,  5.811617800171777E-03, -1.922464558234101E-03,  3.741269976649945E-02,  6.477808158422183E+00, -5.120502924867484E-03,
2453770.870000000, A.D. 2006-Feb-04 08:52:48.0000,  3.129299406975156E+00, -3.399255195620388E+00,  4.436732676052102E+00, -1.432277178613880E-03,  5.864985636552937E-03, -1.991472718191559E-03,  3.699581176246256E-02,  6.405626238096921E+00, -5.191411092242940E-03,
2453784.870000000, A.D. 2006-Feb-18 08:52:48.0000,  3.108899658026232E+00, -3.316768699838406E+00,  4.408357727304589E+00, -1.482205252491442E-03,  5.918889012723660E-03, -2.062423201841719E-03,  3.657313843832095E-02,  6.332442620647221E+00, -5.263610659170743E-03,
2453798.870000000, A.D. 2006-Mar-04 08:52:48.0000,  3.087791004500675E+00, -3.233523771379054E+00,  4.378975298136952E+00, -1.533560125563692E-03,  5.973335864014918E-03, -2.135415569621880E-03,  3.614457339706891E-02,  6.258238884002616E+00, -5.337151444843611E-03,
2453812.870000000, A.D. 2006-Mar-18 08:52:48.0000,  3.065952948088524E+00, -3.149512675402749E+00,  4.348556074276002E+00, -1.586420820324887E-03,  6.028343236356265E-03, -2.210554788853931E-03,  3.571000579193575E-02,  6.182995835639709E+00, -5.412094293719524E-03,
2453826.870000000, A.D. 2006-Apr-01 08:52:48.0000,  3.043363776180775E+00, -3.064727531483286E+00,  4.317069218126487E+00, -1.640876919302726E-03,  6.083914073683269E-03, -2.287954143990871E-03,  3.526931980332039E-02,  6.106693422016220E+00, -5.488499000923264E-03,
2453840.870000000, A.D. 2006-Apr-15 08:52:48.0000,  3.020000535861102E+00, -2.979160451411453E+00,  4.284482240678904E+00, -1.697017180720371E-03,  6.140048446094135E-03, -2.367736143966550E-03,  3.482239484995590E-02,  6.029310765132974E+00, -5.566424930195659E-03,
2453854.870000000, A.D. 2006-Apr-29 08:52:48.0000,  2.995838997191618E+00, -2.892803546886880E+00,  4.250760873395688E+00, -1.754935806714313E-03,  6.196745882159510E-03, -2.450032639733404E-03,  3.436910541618673E-02,  5.950826132627895E+00, -5.645934821334555E-03,
2453868.870000000, A.D. 2006-May-13 08:52:48.0000,  2.970853564464234E+00, -2.805648956037220E+00,  4.215868930194913E+00, -1.814733529494421E-03,  6.254002491965537E-03, -2.534985955047667E-03,  3.390932079234928E-02,  5.871216892824297E+00, -5.727094106291732E-03,
2453882.870000000, A.D. 2006-May-27 08:52:48.0000,  2.945017216513312E+00, -2.717688904425215E+00,  4.179768149162664E+00, -1.876511623725637E-03,  6.311811215690770E-03, -2.622750534803636E-03,  3.344290496296772E-02,  5.790459495372576E+00, -5.809968539116032E-03,
2453896.870000000, A.D. 2006-Jun-10 08:52:48.0000,  2.918301486779383E+00, -2.628915641169827E+00,  4.142418024208114E+00, -1.940380496967051E-03,  6.370176381669864E-03, -2.713492223682538E-03,  3.296971629275096E-02,  5.708529416882282E+00, -5.894633846050684E-03,
2453910.870000000, A.D. 2006-Jun-24 08:52:48.0000,  2.890676192263836E+00, -2.539321394498726E+00,  4.103775639529211E+00, -2.006471568567328E-03,  6.429092464335123E-03, -2.807390322375762E-03,  3.248960663921255E-02,  5.625401007277018E+00, -5.981172116920941E-03,
2453924.870000000, A.D. 2006-Jul-08 08:52:48.0000,  2.862109283046051E+00, -2.448898540316586E+00,  4.063795454650644E+00, -2.074920138715962E-03,  6.488546775151031E-03, -2.904640526666516E-03,  3.200242125987604E-02,  5.541047473727537E+00, -6.069665716846484E-03,
2453938.870000000, A.D. 2006-Jul-22 08:52:48.0000,  2.832566747324525E+00, -2.357639636342724E+00,  4.022429071779319E+00, -2.145872285263791E-03,  6.548525611022518E-03, -3.005455576767116E-03,  3.150799853072769E-02,  5.455440831903351E+00, -6.160202803189407E-03,
2453952.870000000, A.D. 2006-Aug-05 08:52:48.0000,  2.802012428502691E+00, -2.265537459069921E+00,  3.979624984461082E+00, -2.219488604737155E-03,  6.609010718792873E-03, -3.110067215361257E-03,  3.100616945013886E-02,  5.368551820079547E+00, -6.252877558946809E-03,
2453966.870000000, A.D. 2006-Aug-19 08:52:48.0000,  2.770407827570926E+00, -2.172585097764073E+00,  3.935328292941739E+00, -2.295941809900841E-03,  6.669975646298559E-03, -3.218728984087748E-03,  3.049675723089130E-02,  5.280349828498158E+00, -6.347787775515566E-03,
2453980.870000000, A.D. 2006-Sep-02 08:52:48.0000,  2.737711963032274E+00, -2.078776006399083E+00,  3.889480383680595E+00, -2.375417165937194E-03,  6.731397607749914E-03, -3.331717801751200E-03,  2.997957696207660E-02,  5.190802840827871E+00, -6.445039021639329E-03,
2453994.870000000, A.D. 2006-Sep-16 08:52:48.0000,  2.703881018469519E+00, -1.984103975863178E+00,  3.842018596165443E+00, -2.458134599539228E-03,  6.793245119385371E-03, -3.449335897151914E-03,  2.945443458921788E-02,  5.099877257577570E+00, -6.544749826401861E-03,
2454008.870000000, A.D. 2006-Sep-30 08:52:48.0000,  2.668867958114802E+00, -1.888563397149944E+00,  3.792875824600785E+00, -2.544331966843056E-03,  6.855466413244717E-03, -3.571916679960041E-03,  2.892112640846545E-02,  5.007537808519022E+00, -6.647040261152274E-03,
2454022.870000000, A.D. 2006-Oct-14 08:52:48.0000,  2.632622278383943E+00, -1.792149464551893E+00,  3.741980061036591E+00, -2.634268480357075E-03,  6.917998264272995E-03, -3.699827614620022E-03,  2.837943879014524E-02,  4.913747504820788E+00, -6.752036384521383E-03,
2454036.870000000, A.D. 2006-Oct-28 08:52:48.0000,  2.595089657233472E+00, -1.694858362598267E+00,  3.689253890252272E+00, -2.728231031522669E-03,  6.980761472450348E-03, -3.833474539244226E-03,  2.782914762531708E-02,  4.818467543222734E+00, -6.859871245768817E-03,
2454050.870000000, A.D. 2006-Nov-11 08:52:48.0000,  2.556211550740889E+00, -1.596687533734554E+00,  3.634613914449697E+00, -2.826535390153368E-03,  7.043654506475990E-03, -3.973307342636591E-03,  2.727001781447340E-02,  4.721657217506987E+00, -6.970683044759753E-03,
2454064.870000000, A.D. 2006-Nov-25 08:52:48.0000,  2.515924819890587E+00, -1.497635987164008E+00,  3.577970092119081E+00, -2.929523284586139E-03,  7.106557941452410E-03, -4.119826010609944E-03,  2.670180295774706E-02,  4.623273864859059E+00, -7.084614164819354E-03,
2454078.870000000, A.D. 2006-Dec-09 08:52:48.0000,  2.474161215004278E+00, -1.397704502804757E+00,  3.519225005560775E+00, -3.037587469058506E-03,  7.169332822999324E-03, -4.273585629165760E-03,  2.612424459880202E-02,  4.523272734951583E+00, -7.201820714853195E-03,
